start=new Date('2023-03-25T00:00:00.000Z').valueOf();
sats=[{"GP_ID":"228824210","INCLINATION":"53.2162","OBJECT_NAME":"STARLINK-3638","BSTAR":"0.00211340000000","SITE":"AFWTR","LAUNCH_DATE":"2022-02-25","ARG_OF_PERICENTER":"89.6527","DECAY_DATE":null,"PERIOD":"95.433","TLE_LINE2":"2 51786  53.2162 161.9366 0000959  89.6527 270.4575 15.08914337 59083","PERIAPSIS":"538.855","MEAN_MOTION_DOT":"0.00033576","MEAN_ANOMALY":"270.4575","TIME_SYSTEM":"UTC","RCS_SIZE":"LARGE","SEMIMAJOR_AXIS":"6917.653","COUNTRY_CODE":"US","ECCENTRICITY":"0.00009590","EPOCH":"2023-03-24T16:26:20.993280","OBJECT_ID":"2022-017U","OBJECT_TYPE":"PAYLOAD","FILE":"3870109","APOAPSIS":"540.182","RA_OF_ASC_NODE":"161.9366","NORAD_CAT_ID":"51786","REF_FRAME":"TEME","MEAN_MOTION_DDOT":"0.0000000000000","REV_AT_EPOCH":"5908","CLASSIFICATION_TYPE":"U","CENTER_NAME":"EARTH","MEAN_ELEMENT_THEORY":"SGP4","ELEMENT_SET_NO":"999","TLE_LINE1":"1 51786U 22017U   23083.68496520  .00033576  00000-0  21134-2 0  9992","EPHEMERIS_TYPE":"0","MEAN_MOTION":"15.08914337"},{"CENTER_NAME":"EARTH","CLASSIFICATION_TYPE":"U","EPHEMERIS_TYPE":"0","MEAN_MOTION":"15.08889580","TLE_LINE1":"1 51787U 22017V   23083.50097909  .00022541  00000-0  14279-2 0  9994","ELEMENT_SET_NO":"999","MEAN_ELEMENT_THEORY":"SGP4","OBJECT_TYPE":"PAYLOAD","OBJECT_ID":"2022-017V","EPOCH":"2023-03-24T12:01:24.593376","ECCENTRICITY":"0.00019220","COUNTRY_CODE":"US","SEMIMAJOR_AXIS":"6917.729","RCS_SIZE":"LARGE","REV_AT_EPOCH":"5905","MEAN_MOTION_DDOT":"0.0000000000000","REF_FRAME":"TEME","NORAD_CAT_ID":"51787","RA_OF_ASC_NODE":"162.7662","APOAPSIS":"540.923","FILE":"3869846","MEAN_ANOMALY":"261.1077","PERIAPSIS":"538.264","MEAN_MOTION_DOT":"0.00022541","TLE_LINE2":"2 51787  53.2162 162.7662 0001922  99.0132 261.1077 15.08889580 59052","PERIOD":"95.434","TIME_SYSTEM":"UTC","LAUNCH_DATE":"2022-02-25","SITE":"AFWTR","BSTAR":"0.00142790000000","OBJECT_NAME":"STARLINK-3619","GP_ID":"228791592","INCLINATION":"53.2162","DECAY_DATE":null,"ARG_OF_PERICENTER":"99.0132"},{"CENTER_NAME":"EARTH","CLASSIFICATION_TYPE":"U","MEAN_MOTION":"15.08892226","EPHEMERIS_TYPE":"0","MEAN_ELEMENT_THEORY":"SGP4","ELEMENT_SET_NO":"999","TLE_LINE1":"1 51788U 22017W   23083.54144244  .00012653  00000-0  81048-3 0  9996","ECCENTRICITY":"0.00011910","EPOCH":"2023-03-24T12:59:40.626816","OBJECT_ID":"2022-017W","OBJECT_TYPE":"PAYLOAD","RCS_SIZE":"LARGE","SEMIMAJOR_AXIS":"6917.721","COUNTRY_CODE":"US","NORAD_CAT_ID":"51788","REF_FRAME":"TEME","REV_AT_EPOCH":"6070","MEAN_MOTION_DDOT":"0.0000000000000","FILE":"3869846","RA_OF_ASC_NODE":"162.5822","APOAPSIS":"540.410","TLE_LINE2":"2 51788  53.2148 162.5822 0001191 104.4929 255.6195 15.08892226 60700","PERIAPSIS":"538.762","MEAN_MOTION_DOT":"0.00012653","MEAN_ANOMALY":"255.6195","PERIOD":"95.434","TIME_SYSTEM":"UTC","SITE":"AFWTR","LAUNCH_DATE":"2022-02-25","INCLINATION":"53.2148","GP_ID":"228791843","OBJECT_NAME":"STARLINK-3641","BSTAR":"0.00081048000000","ARG_OF_PERICENTER":"104.4929","DECAY_DATE":null},{"CLASSIFICATION_TYPE":"U","CENTER_NAME":"EARTH","TLE_LINE1":"1 51789U 22017X   23083.48992791  .00039733  00000-0  24966-2 0  9991","MEAN_ELEMENT_THEORY":"SGP4","ELEMENT_SET_NO":"999","EPHEMERIS_TYPE":"0","MEAN_MOTION":"15.08898254","COUNTRY_CODE":"US","RCS_SIZE":"LARGE","SEMIMAJOR_AXIS":"6917.702","OBJECT_ID":"2022-017X","OBJECT_TYPE":"PAYLOAD","ECCENTRICITY":"0.00010060","EPOCH":"2023-03-24T11:45:29.771424","RA_OF_ASC_NODE":"162.8128","APOAPSIS":"540.263","FILE":"3869846","REV_AT_EPOCH":"5905","MEAN_MOTION_DDOT":"0.0000000000000","NORAD_CAT_ID":"51789","REF_FRAME":"TEME","PERIOD":"95.434","MEAN_ANOMALY":"245.9703","TLE_LINE2":"2 51789  53.2154 162.8128 0001006 114.1395 245.9703 15.08898254 59050","PERIAPSIS":"538.871","MEAN_MOTION_DOT":"0.00039733","TIME_SYSTEM":"UTC","BSTAR":"0.00249660000000","GP_ID":"228790591","INCLINATION":"53.2154","OBJECT_NAME":"STARLINK-3639","SITE":"AFWTR","LAUNCH_DATE":"2022-02-25","ARG_OF_PERICENTER":"114.1395","DECAY_DATE":null},{"APOAPSIS":"540.602","RA_OF_ASC_NODE":"162.6011","FILE":"3869846","REV_AT_EPOCH":"6075","MEAN_MOTION_DDOT":"0.0000000000000","REF_FRAME":"TEME","NORAD_CAT_ID":"51790","COUNTRY_CODE":"US","SEMIMAJOR_AXIS":"6917.637","RCS_SIZE":"LARGE","OBJECT_TYPE":"PAYLOAD","OBJECT_ID":"2022-017Y","EPOCH":"2023-03-24T12:54:23.117184","ECCENTRICITY":"0.00015890","TLE_LINE1":"1 51790U 22017Y   23083.53776756  .00047949  00000-0  30039-2 0  9996","MEAN_ELEMENT_THEORY":"SGP4","ELEMENT_SET_NO":"999","MEAN_MOTION":"15.08919509","EPHEMERIS_TYPE":"0","CLASSIFICATION_TYPE":"U","CENTER_NAME":"EARTH","ARG_OF_PERICENTER":"88.9917","DECAY_DATE":null,"BSTAR":"0.00300390000000","GP_ID":"228790841","INCLINATION":"53.2154","OBJECT_NAME":"STARLINK-3631","LAUNCH_DATE":"2022-02-25","SITE":"AFWTR","TIME_SYSTEM":"UTC","PERIOD":"95.433","MEAN_ANOMALY":"271.1257","MEAN_MOTION_DOT":"0.00047949","PERIAPSIS":"538.403","TLE_LINE2":"2 51790  53.2154 162.6011 0001589  88.9917 271.1257 15.08919509 60756"},{"CENTER_NAME":"EARTH","CLASSIFICATION_TYPE":"U","EPHEMERIS_TYPE":"0","MEAN_MOTION":"15.08936197","TLE_LINE1":"1 51791U 22017Z   23083.68128095  .00049513  00000-0  30992-2 0  9997","MEAN_ELEMENT_THEORY":"SGP4","ELEMENT_SET_NO":"999","OBJECT_TYPE":"PAYLOAD","OBJECT_ID":"2022-017Z","EPOCH":"2023-03-24T16:21:02.674080","ECCENTRICITY":"0.00017420","COUNTRY_CODE":"US","RCS_SIZE":"LARGE","SEMIMAJOR_AXIS":"6917.586","REV_AT_EPOCH":"6072","MEAN_MOTION_DDOT":"0.0000000000000","REF_FRAME":"TEME","NORAD_CAT_ID":"51791","RA_OF_ASC_NODE":"161.9558","APOAPSIS":"540.656","FILE":"3870109","MEAN_ANOMALY":"280.1781","MEAN_MOTION_DOT":"0.00049513","PERIAPSIS":"538.246","TLE_LINE2":"2 51791  53.2135 161.9558 0001742  79.9408 280.1781 15.08936197 60721","PERIOD":"95.431","TIME_SYSTEM":"UTC","LAUNCH_DATE":"2022-02-25","SITE":"AFWTR","BSTAR":"0.00309920000000","GP_ID":"228823464","INCLINATION":"53.2135","OBJECT_NAME":"STARLINK-3602","ARG_OF_PERICENTER":"79.9408","DECAY_DATE":null},{"SEMIMAJOR_AXIS":"6917.868","RCS_SIZE":"LARGE","COUNTRY_CODE":"US","EPOCH":"2023-03-24T22:16:08.244480","ECCENTRICITY":"0.00014580","OBJECT_TYPE":"PAYLOAD","OBJECT_ID":"2022-017AA","FILE":"3870109","APOAPSIS":"540.742","RA_OF_ASC_NODE":"160.8478","REF_FRAME":"TEME","NORAD_CAT_ID":"51792","MEAN_MOTION_DDOT":"0.0000000000000","REV_AT_EPOCH":"6081","CLASSIFICATION_TYPE":"U","CENTER_NAME":"EARTH","ELEMENT_SET_NO":"999","MEAN_ELEMENT_THEORY":"SGP4","TLE_LINE1":"1 51792U 22017AA  23083.92787320  .00003508  00000-0  23837-3 0  9992","MEAN_MOTION":"15.08843958","EPHEMERIS_TYPE":"0","GP_ID":"228823215","INCLINATION":"53.2149","OBJECT_NAME":"STARLINK-3626","BSTAR":"0.00023837000000","LAUNCH_DATE":"2022-02-25","SITE":"AFWTR","DECAY_DATE":null,"ARG_OF_PERICENTER":"88.0948","PERIOD":"95.437","MEAN_MOTION_DOT":"0.00003508","PERIAPSIS":"538.725","TLE_LINE2":"2 51792  53.2149 160.8478 0001458  88.0948 272.0211 15.08843958 60810","MEAN_ANOMALY":"272.0211","TIME_SYSTEM":"UTC"},{"CENTER_NAME":"EARTH","CLASSIFICATION_TYPE":"U","MEAN_MOTION":"15.08895566","EPHEMERIS_TYPE":"0","TLE_LINE1":"1 51793U 22017AB  23083.47887855  .00010491  00000-0  67525-3 0  9998","MEAN_ELEMENT_THEORY":"SGP4","ELEMENT_SET_NO":"999","OBJECT_ID":"2022-017AB","OBJECT_TYPE":"PAYLOAD","ECCENTRICITY":"0.00012830","EPOCH":"2023-03-24T11:29:35.106720","COUNTRY_CODE":"US","RCS_SIZE":"LARGE","SEMIMAJOR_AXIS":"6917.711","MEAN_MOTION_DDOT":"0.0000000000000","REV_AT_EPOCH":"6074","NORAD_CAT_ID":"51793","REF_FRAME":"TEME","RA_OF_ASC_NODE":"162.8618","APOAPSIS":"540.463","FILE":"3869846","MEAN_ANOMALY":"259.1689","TLE_LINE2":"2 51793  53.2156 162.8618 0001283 100.9447 259.1689 15.08895566 60740","PERIAPSIS":"538.688","MEAN_MOTION_DOT":"0.00010491","PERIOD":"95.434","TIME_SYSTEM":"UTC","SITE":"AFWTR","LAUNCH_DATE":"2022-02-25","BSTAR":"0.00067525000000","OBJECT_NAME":"STARLINK-3633","GP_ID":"228791092","INCLINATION":"53.2156","ARG_OF_PERICENTER":"100.9447","DECAY_DATE":null},{"DECAY_DATE":null,"ARG_OF_PERICENTER":"110.7537","LAUNCH_DATE":"2022-02-25","SITE":"AFWTR","INCLINATION":"53.2149","GP_ID":"228824211","OBJECT_NAME":"STARLINK-3573","BSTAR":"0.00026578000000","TIME_SYSTEM":"UTC","MEAN_MOTION_DOT":"0.00003948","PERIAPSIS":"539.152","TLE_LINE2":"2 51794  53.2149 160.8806 0000733 110.7537 249.3533 15.08868246 60764","MEAN_ANOMALY":"249.3533","PERIOD":"95.436","REF_FRAME":"TEME","NORAD_CAT_ID":"51794","REV_AT_EPOCH":"6076","MEAN_MOTION_DDOT":"0.0000000000000","FILE":"3870109","APOAPSIS":"540.166","RA_OF_ASC_NODE":"160.8806","EPOCH":"2023-03-24T22:05:29.623200","ECCENTRICITY":"0.00007330","OBJECT_TYPE":"PAYLOAD","OBJECT_ID":"2022-017AC","SEMIMAJOR_AXIS":"6917.794","RCS_SIZE":"LARGE","COUNTRY_CODE":"US","MEAN_MOTION":"15.08868246","EPHEMERIS_TYPE":"0","MEAN_ELEMENT_THEORY":"SGP4","ELEMENT_SET_NO":"999","TLE_LINE1":"1 51794U 22017AC  23083.92048175  .00003948  00000-0  26578-3 0  9995","CENTER_NAME":"EARTH","CLASSIFICATION_TYPE":"U"},{"FILE":"3870109","APOAPSIS":"540.558","RA_OF_ASC_NODE":"160.8638","REF_FRAME":"TEME","NORAD_CAT_ID":"51795","REV_AT_EPOCH":"6076","MEAN_MOTION_DDOT":"0.0000000000000","SEMIMAJOR_AXIS":"6917.762","RCS_SIZE":"LARGE","COUNTRY_CODE":"US","EPOCH":"2023-03-24T22:10:47.304768","ECCENTRICITY":"0.00013470","OBJECT_TYPE":"PAYLOAD","OBJECT_ID":"2022-017AD","ELEMENT_SET_NO":"999","MEAN_ELEMENT_THEORY":"SGP4","TLE_LINE1":"1 51795U 22017AD  23083.92415862  .00002054  00000-0  14695-3 0  9991","MEAN_MOTION":"15.08878891","EPHEMERIS_TYPE":"0","CLASSIFICATION_TYPE":"U","CENTER_NAME":"EARTH","ARG_OF_PERICENTER":"108.7845","DECAY_DATE":null,"INCLINATION":"53.2159","GP_ID":"228822965","OBJECT_NAME":"STARLINK-3586","BSTAR":"0.00014695000000","LAUNCH_DATE":"2022-02-25","SITE":"AFWTR","TIME_SYSTEM":"UTC","PERIOD":"95.435","MEAN_MOTION_DOT":"0.00002054","PERIAPSIS":"538.695","TLE_LINE2":"2 51795  53.2159 160.8638 0001347 108.7845 251.3293 15.08878891 60763","MEAN_ANOMALY":"251.3293"}];
